CTC1_L_00175001-01
1 13098U 22045BH  26070.40833333  .00000000  00000+0  00000-0 0  9995
2 13098  65.0000   0.0000 0000000   0.0000   0.0000 13.89609395    18
CTC1_L_00175001-02
1 13099U 23898YE  26070.40833333  .00000000  00000+0  00000-0 0  9993
2 13099  65.0000   0.0000 0000000   0.0000  90.0000 13.89609395    18
CTC1_L_00175001-03
1 13100U 23636DJ  26070.40833333  .00000000  00000+0  00000-0 0  9996
2 13100  65.0000   0.0000 0000000   0.0000 180.0000 13.89609395    11
CTC1_L_00175001-04
1 13101U 23307NO  26070.40833333  .00000000  00000+0  00000-0 0  9992
2 13101  65.0000   0.0000 0000000   0.0000 270.0000 13.89609395    12
CTC1_L_00175002-01
1 13102U 24683WW  26070.40833333  .00000000  00000+0  00000-0 0  9991
2 13102  65.0000  12.0000 0000000   0.0000  12.0000 13.89609395    10
CTC1_L_00175002-02
1 13103U 24534CY  26070.40833333  .00000000  00000+0  00000-0 0  9997
2 13103  65.0000  12.0000 0000000   0.0000 102.0000 13.89609395    11
CTC1_L_00175002-03
1 13104U 26966IB  26070.40833333  .00000000  00000+0  00000-0 0  9999
2 13104  65.0000  12.0000 0000000   0.0000 192.0000 13.89609395    11
CTC1_L_00175002-04
1 13105U 23981TR  26070.40833333  .00000000  00000+0  00000-0 0  9994
2 13105  65.0000  12.0000 0000000   0.0000 282.0000 13.89609395    12
CTC1_L_00175003-01
1 13106U 23037GA  26070.40833333  .00000000  00000+0  00000-0 0  9997
2 13106  65.0000  24.0000 0000000   0.0000  24.0000 13.89609395    10
CTC1_L_00175003-02
1 13107U 26135WU  26070.40833333  .00000000  00000+0  00000-0 0  9990
2 13107  65.0000  24.0000 0000000   0.0000 114.0000 13.89609395    11
CTC1_L_00175003-03
1 13108U 23466OI  26070.40833333  .00000000  00000+0  00000-0 0  9995
2 13108  65.0000  24.0000 0000000   0.0000 204.0000 13.89609395    12
CTC1_L_00175003-04
1 13109U 23155K   26070.40833333  .00000000  00000+0  00000-0 0  9991
2 13109  65.0000  24.0000 0000000   0.0000 294.0000 13.89609395    12
CTC1_L_00175004-01
1 13110U 26550QT  26070.40833333  .00000000  00000+0  00000-0 0  9995
2 13110  65.0000  36.0000 0000000   0.0000  36.0000 13.89609395    11
CTC1_L_00175004-02
1 13111U 26481KG  26070.40833333  .00000000  00000+0  00000-0 0  9999
2 13111  65.0000  36.0000 0000000   0.0000 126.0000 13.89609395    12
CTC1_L_00175004-03
1 13112U 26767NV  26070.40833333  .00000000  00000+0  00000-0 0  9997
2 13112  65.0000  36.0000 0000000   0.0000 216.0000 13.89609395    13
CTC1_L_00175004-04
1 13113U 25180ZQ  26070.40833333  .00000000  00000+0  00000-0 0  9996
2 13113  65.0000  36.0000 0000000   0.0000 306.0000 13.89609395    14
CTC1_L_00175005-01
1 13114U 26935OE  26070.40833333  .00000000  00000+0  00000-0 0  9996
2 13114  65.0000  48.0000 0000000   0.0000  48.0000 13.89609395    11
CTC1_L_00175005-02
1 13115U 22977ZM  26070.40833333  .00000000  00000+0  00000-0 0  9999
2 13115  65.0000  48.0000 0000000   0.0000 138.0000 13.89609395    12
CTC1_L_00175005-03
1 13116U 26994PV  26070.40833333  .00000000  00000+0  00000-0 0  9993
2 13116  65.0000  48.0000 0000000   0.0000 228.0000 13.89609395    13
CTC1_L_00175005-04
1 13117U 25720QO  26070.40833333  .00000000  00000+0  00000-0 0  9990
2 13117  65.0000  48.0000 0000000   0.0000 318.0000 13.89609395    14
CTC1_L_00175006-01
1 13118U 24528FC  26070.40833333  .00000000  00000+0  00000-0 0  9996
2 13118  65.0000  60.0000 0000000   0.0000  60.0000 13.89609395    13
CTC1_L_00175006-02
1 13119U 22224XE  26070.40833333  .00000000  00000+0  00000-0 0  9998
2 13119  65.0000  60.0000 0000000   0.0000 150.0000 13.89609395    14
CTC1_L_00175006-03
1 13120U 25676BS  26070.40833333  .00000000  00000+0  00000-0 0  9994
2 13120  65.0000  60.0000 0000000   0.0000 240.0000 13.89609395    16
CTC1_L_00175006-04
1 13121U 24305DL  26070.40833333  .00000000  00000+0  00000-0 0  9993
2 13121  65.0000  60.0000 0000000   0.0000 330.0000 13.89609395    17
CTC1_L_00175007-01
1 13122U 23994NP  26070.40833333  .00000000  00000+0  00000-0 0  9997
2 13122  65.0000  72.0000 0000000   0.0000  72.0000 13.89609395    14
CTC1_L_00175007-02
1 13123U 25156XK  26070.40833333  .00000000  00000+0  00000-0 0  9990
2 13123  65.0000  72.0000 0000000   0.0000 162.0000 13.89609395    15
CTC1_L_00175007-03
1 13124U 25811DT  26070.40833333  .00000000  00000+0  00000-0 0  9999
2 13124  65.0000  72.0000 0000000   0.0000 252.0000 13.89609395    16
CTC1_L_00175007-04
1 13125U 26509HP  26070.40833333  .00000000  00000+0  00000-0 0  9995
2 13125  65.0000  72.0000 0000000   0.0000 342.0000 13.89609395    17
CTC1_L_00175008-01
1 13126U 25192LU  26070.40833333  .00000000  00000+0  00000-0 0  9993
2 13126  65.0000  84.0000 0000000   0.0000  84.0000 13.89609395    14
CTC1_L_00175008-02
1 13127U 26114EO  26070.40833333  .00000000  00000+0  00000-0 0  9999
2 13127  65.0000  84.0000 0000000   0.0000 174.0000 13.89609395    15
CTC1_L_00175008-03
1 13128U 22914AN  26070.40833333  .00000000  00000+0  00000-0 0  9994
2 13128  65.0000  84.0000 0000000   0.0000 264.0000 13.89609395    16
CTC1_L_00175008-04
1 13129U 26141CJ  26070.40833333  .00000000  00000+0  00000-0 0  9991
2 13129  65.0000  84.0000 0000000   0.0000 354.0000 13.89609395    17
CTC1_L_00175009-01
1 13130U 22986RX  26070.40833333  .00000000  00000+0  00000-0 0  9996
2 13130  65.0000  96.0000 0000000   0.0000  96.0000 13.89609395    15
CTC1_L_00175009-02
1 13131U 24322WH  26070.40833333  .00000000  00000+0  00000-0 0  9993
2 13131  65.0000  96.0000 0000000   0.0000 186.0000 13.89609395    16
CTC1_L_00175009-03
1 13132U 25844TC  26070.40833333  .00000000  00000+0  00000-0 0  9994
2 13132  65.0000  96.0000 0000000   0.0000 276.0000 13.89609395    17
CTC1_L_00175009-04
1 13133U 23379EI  26070.40833333  .00000000  00000+0  00000-0 0  9996
2 13133  65.0000  96.0000 0000000   0.0000   6.0000 13.89609395    19
CTC1_L_00175010-01
1 13134U 23166PW  26070.40833333  .00000000  00000+0  00000-0 0  9991
2 13134  65.0000 108.0000 0000000   0.0000 108.0000 13.89609395    17
CTC1_L_00175010-02
1 13135U 26638CB  26070.40833333  .00000000  00000+0  00000-0 0  9999
2 13135  65.0000 108.0000 0000000   0.0000 198.0000 13.89609395    17
CTC1_L_00175010-03
1 13136U 25757UU  26070.40833333  .00000000  00000+0  00000-0 0  9991
2 13136  65.0000 108.0000 0000000   0.0000 288.0000 13.89609395    18
CTC1_L_00175010-04
1 13137U 26343UU  26070.40833333  .00000000  00000+0  00000-0 0  9994
2 13137  65.0000 108.0000 0000000   0.0000  18.0000 13.89609395    10
CTC1_L_00175011-01
1 13138U 25490HC  26070.40833333  .00000000  00000+0  00000-0 0  9997
2 13138  65.0000 120.0000 0000000   0.0000 120.0000 13.89609395    19
CTC1_L_00175011-02
1 13139U 23027BF  26070.40833333  .00000000  00000+0  00000-0 0  9992
2 13139  65.0000 120.0000 0000000   0.0000 210.0000 13.89609395    10
CTC1_L_00175011-03
1 13140U 25208PM  26070.40833333  .00000000  00000+0  00000-0 0  9997
2 13140  65.0000 120.0000 0000000   0.0000 300.0000 13.89609395    12
CTC1_L_00175011-04
1 13141U 22211EL  26070.40833333  .00000000  00000+0  00000-0 0  9999
2 13141  65.0000 120.0000 0000000   0.0000  30.0000 13.89609395    13
CTC1_L_00175012-01
1 13142U 26216CG  26070.40833333  .00000000  00000+0  00000-0 0  9999
2 13142  65.0000 132.0000 0000000   0.0000 132.0000 13.89609395    10
CTC1_L_00175012-02
1 13143U 23487PE  26070.40833333  .00000000  00000+0  00000-0 0  9997
2 13143  65.0000 132.0000 0000000   0.0000 222.0000 13.89609395    11
CTC1_L_00175012-03
1 13144U 25114DE  26070.40833333  .00000000  00000+0  00000-0 0  9997
2 13144  65.0000 132.0000 0000000   0.0000 312.0000 13.89609395    12
CTC1_L_00175012-04
1 13145U 24762IO  26070.40833333  .00000000  00000+0  00000-0 0  9996
2 13145  65.0000 132.0000 0000000   0.0000  42.0000 13.89609395    13
CTC1_L_00175013-01
1 13146U 26654KK  26070.40833333  .00000000  00000+0  00000-0 0  9999
2 13146  65.0000 144.0000 0000000   0.0000 144.0000 13.89609395    10
CTC1_L_00175013-02
1 13147U 24326LF  26070.40833333  .00000000  00000+0  00000-0 0  9994
2 13147  65.0000 144.0000 0000000   0.0000 234.0000 13.89609395    11
CTC1_L_00175013-03
1 13148U 25014UT  26070.40833333  .00000000  00000+0  00000-0 0  9990
2 13148  65.0000 144.0000 0000000   0.0000 324.0000 13.89609395    12
CTC1_L_00175013-04
1 13149U 22704NL  26070.40833333  .00000000  00000+0  00000-0 0  9994
2 13149  65.0000 144.0000 0000000   0.0000  54.0000 13.89609395    13
CTC1_L_00175014-01
1 13150U 26068QP  26070.40833333  .00000000  00000+0  00000-0 0  9993
2 13150  65.0000 156.0000 0000000   0.0000 156.0000 13.89609395    11
CTC1_L_00175014-02
1 13151U 25813XE  26070.40833333  .00000000  00000+0  00000-0 0  9991
2 13151  65.0000 156.0000 0000000   0.0000 246.0000 13.89609395    12
CTC1_L_00175014-03
1 13152U 25519VO  26070.40833333  .00000000  00000+0  00000-0 0  9995
2 13152  65.0000 156.0000 0000000   0.0000 336.0000 13.89609395    13
CTC1_L_00175014-04
1 13153U 24855KN  26070.40833333  .00000000  00000+0  00000-0 0  9998
2 13153  65.0000 156.0000 0000000   0.0000  66.0000 13.89609395    14
CTC1_L_00175015-01
1 13154U 24832AU  26070.40833333  .00000000  00000+0  00000-0 0  9994
2 13154  65.0000 168.0000 0000000   0.0000 168.0000 13.89609395    11
CTC1_L_00175015-02
1 13155U 22447AS  26070.40833333  .00000000  00000+0  00000-0 0  9995
2 13155  65.0000 168.0000 0000000   0.0000 258.0000 13.89609395    12
CTC1_L_00175015-03
1 13156U 25949CZ  26070.40833333  .00000000  00000+0  00000-0 0  9996
2 13156  65.0000 168.0000 0000000   0.0000 348.0000 13.89609395    13
CTC1_L_00175015-04
1 13157U 22340OQ  26070.40833333  .00000000  00000+0  00000-0 0  9999
2 13157  65.0000 168.0000 0000000   0.0000  78.0000 13.89609395    14
CTC1_L_00175016-01
1 13158U 23725JI  26070.40833333  .00000000  00000+0  00000-0 0  9998
2 13158  65.0000 180.0000 0000000   0.0000 180.0000 13.89609395    13
CTC1_L_00175016-02
1 13159U 25202FV  26070.40833333  .00000000  00000+0  00000-0 0  9991
2 13159  65.0000 180.0000 0000000   0.0000 270.0000 13.89609395    14
